{"type": "FeatureCollection", "features": [ {"type": "Feature", "properties": {"norad_id": 43648, "name": "BEIDOU-3 M15 (C34)", "group": "gnss", "lat": -45.53886471793983, "lon": -101.13363033216183, "alt_km": 21531.394363411502, "timestamp": "2025-12-26T03:50:12.336825+00:00", "meta": {"OBJECT_NAME": "BEIDOU-3 M15 (C34)", "OBJECT_ID": "2018-078B", "EPOCH": "2025-12-24T02:29:34.317888", "MEAN_MOTION": 1.86232361, "ECCENTRICITY": 0.0004049, "INCLINATION": 54.2473, "RA_OF_ASC_NODE": 306.125, "ARG_OF_PERICENTER": 19.767, "MEAN_ANOMALY": 340.256, "EPHEMERIS_TYPE": 0, "CLASSIFICATION_TYPE": "U", "NORAD_CAT_ID": 43648, "ELEMENT_SET_NO": 999, "REV_AT_EPOCH": 4891, "BSTAR": 0, "MEAN_MOTION_DOT": -5.2e-07, "MEAN_MOTION_DDOT": 0}, "tle": {"line1": "1 43648U 18078B   25358.10386942 -.00000052  00000+0  00000+0 0  9991", "line2": "2 43648  54.2473 306.1250 0004049  19.7670 340.2560  1.86232361 48910"}}, "geometry": {"type": "Point", "coordinates": [-101.13363033216183, -45.53886471793983]}}, {"type": "Feature", "properties": {"norad_id": 43683, "name": "BEIDOU-3 G1 (C59)", "group": "gnss", "lat": -0.46973303897040075, "lon": -67.61314664269122, "alt_km": 35792.71023930042, "timestamp": "2025-12-26T03:50:12.336839+00:00", "meta": {"OBJECT_NAME": "BEIDOU-3 G1 (C59)", "OBJECT_ID": "2018-085A", "EPOCH": "2025-12-25T12:50:40.529184", "MEAN_MOTION": 1.00266313, "ECCENTRICITY": 0.0001423, "INCLINATION": 2.6378, "RA_OF_ASC_NODE": 102.5888, "ARG_OF_PERICENTER": 44.1806, "MEAN_ANOMALY": 280.1361, "EPHEMERIS_TYPE": 0, "CLASSIFICATION_TYPE": "U", "NORAD_CAT_ID": 43683, "ELEMENT_SET_NO": 999, "REV_AT_EPOCH": 2631, "BSTAR": 0, "MEAN_MOTION_DOT": -2.58e-06, "MEAN_MOTION_DDOT": 0}, "tle": {"line1": "1 43683U 18085A   25359.53519131 -.00000258  00000+0  00000+0 0  9992", "line2": "2 43683   2.6378 102.5888 0001423  44.1806 280.1361  1.00266313 26312"}}, "geometry": {"type": "Point", "coordinates": [-67.61314664269122, -0.46973303897040075]}}, {"type": "Feature", "properties": {"norad_id": 43687, "name": "COSMOS 2529 (757)", "group": "gnss", "lat": 61.08067010971568, "lon": -42.28881062659838, "alt_km": 19138.445085700525, "timestamp": "2025-12-26T03:50:12.336850+00:00", "meta": {"OBJECT_NAME": "COSMOS 2529 (757)", "OBJECT_ID": "2018-086A", "EPOCH": "2025-12-23T05:01:04.327104", "MEAN_MOTION": 2.13102131, "ECCENTRICITY": 0.0006897, "INCLINATION": 64.2927, "RA_OF_ASC_NODE": 198.5346, "ARG_OF_PERICENTER": 253.659, "MEAN_ANOMALY": 106.3281, "EPHEMERIS_TYPE": 0, "CLASSIFICATION_TYPE": "U", "NORAD_CAT_ID": 43687, "ELEMENT_SET_NO": 999, "REV_AT_EPOCH": 5553, "BSTAR": 0, "MEAN_MOTION_DOT": 9.5e-07, "MEAN_MOTION_DDOT": 0}, "tle": {"line1": "1 43687U 18086A   25357.20907786  .00000095  00000+0  00000+0 0  9994", "line2": "2 43687  64.2927 198.5346 0006897 253.6590 106.3281  2.13102131 55539"}}, "geometry": {"type": "Point", "coordinates": [-42.28881062659838, 61.08067010971568]}}, {"type": "Feature", "properties": {"norad_id": 43706, "name": "BEIDOU-3 M17 (C36)", "group": "gnss", "lat": -9.69435576922289, "lon": 15.260212812280347, "alt_km": 21536.95251721993, "timestamp": "2025-12-26T03:50:12.336864+00:00", "meta": {"OBJECT_NAME": "BEIDOU-3 M17 (C36)", "OBJECT_ID": "2018-093A", "EPOCH": "2025-12-25T01:59:52.471680", "MEAN_MOTION": 1.86228331, "ECCENTRICITY": 0.00060142, "INCLINATION": 54.1734, "RA_OF_ASC_NODE": 188.2028, "ARG_OF_PERICENTER": 307.2012, "MEAN_ANOMALY": 243.0238, "EPHEMERIS_TYPE": 0, "CLASSIFICATION_TYPE": "U", "NORAD_CAT_ID": 43706, "ELEMENT_SET_NO": 999, "REV_AT_EPOCH": 4829, "BSTAR": 0, "MEAN_MOTION_DOT": 1.09e-06, "MEAN_MOTION_DDOT": 0}, "tle": {"line1": "1 43706U 18093A   25359.08324620  .00000109  00000+0  00000+0 0  9998", "line2": "2 43706  54.1734 188.2028 0006014 307.2012 243.0238  1.86228331 48290"}}, "geometry": {"type": "Point", "coordinates": [15.260212812280347, -9.69435576922289]}}, {"type": "Feature", "properties": {"norad_id": 43707, "name": "BEIDOU-3 M18 (C37)", "group": "gnss", "lat": -51.60674534385896, "lon": 122.37937419864855, "alt_km": 21528.093711978097, "timestamp": "2025-12-26T03:50:12.336875+00:00", "meta": {"OBJECT_NAME": "BEIDOU-3 M18 (C37)", "OBJECT_ID": "2018-093B", "EPOCH": "2025-12-23T01:12:21.238848", "MEAN_MOTION": 1.86226616, "ECCENTRICITY": 0.0006147, "INCLINATION": 54.1741, "RA_OF_ASC_NODE": 188.2636, "ARG_OF_PERICENTER": 354.1254, "MEAN_ANOMALY": 5.9078, "EPHEMERIS_TYPE": 0, "CLASSIFICATION_TYPE": "U", "NORAD_CAT_ID": 43707, "ELEMENT_SET_NO": 999, "REV_AT_EPOCH": 4825, "BSTAR": 0, "MEAN_MOTION_DOT": 9.6e-07, "MEAN_MOTION_DDOT": 0}, "tle": {"line1": "1 43707U 18093B   25357.05024582  .00000096  00000+0  00000+0 0  9993", "line2": "2 43707  54.1741 188.2636 0006147 354.1254   5.9078  1.86226616 48257"}}, "geometry": {"type": "Point", "coordinates": [122.37937419864855, -51.60674534385896]}}, {"type": "Feature", "properties": {"norad_id": 43873, "name": "GPS BIII-1  (PRN 04)", "group": "gnss", "lat": 49.63627520835515, "lon": -134.66662942044962, "alt_km": 20164.669321808073, "timestamp": "2025-12-26T03:50:12.336886+00:00", "meta": {"OBJECT_NAME": "GPS BIII-1  (PRN 04)", "OBJECT_ID": "2018-109A", "EPOCH": "2025-12-24T12:17:00.757248", "MEAN_MOTION": 2.00553945, "ECCENTRICITY": 0.00376159, "INCLINATION": 55.5731, "RA_OF_ASC_NODE": 99.0827, "ARG_OF_PERICENTER": 195.5593, "MEAN_ANOMALY": 167.4766, "EPHEMERIS_TYPE": 0, "CLASSIFICATION_TYPE": "U", "NORAD_CAT_ID": 43873, "ELEMENT_SET_NO": 999, "REV_AT_EPOCH": 5157, "BSTAR": 0, "MEAN_MOTION_DOT": 1.7e-07, "MEAN_MOTION_DDOT": 0}, "tle": {"line1": "1 43873U 18109A   25358.51181432  .00000017  00000+0  00000+0 0  9998", "line2": "2 43873  55.5731  99.0827 0037615 195.5593 167.4766  2.00553945 51575"}}, "geometry": {"type": "Point", "coordinates": [-134.66662942044962, 49.63627520835515]}}, {"type": "Feature", "properties": {"norad_id": 44231, "name": "BEIDOU-2 G8 (C01)", "group": "gnss", "lat": -1.1559254112566753, "lon": -63.09326044420014, "alt_km": 35757.44742744538, "timestamp": "2025-12-26T03:50:12.336899+00:00", "meta": {"OBJECT_NAME": "BEIDOU-2 G8 (C01)", "OBJECT_ID": "2019-027A", "EPOCH": "2025-12-25T18:53:23.711136", "MEAN_MOTION": 1.00274194, "ECCENTRICITY": 0.0008325, "INCLINATION": 1.6928, "RA_OF_ASC_NODE": 74.7393, "ARG_OF_PERICENTER": 258.9605, "MEAN_ANOMALY": 188.7082, "EPHEMERIS_TYPE": 0, "CLASSIFICATION_TYPE": "U", "NORAD_CAT_ID": 44231, "ELEMENT_SET_NO": 999, "REV_AT_EPOCH": 2434, "BSTAR": 0, "MEAN_MOTION_DOT": -2.26e-06, "MEAN_MOTION_DDOT": 0}, "tle": {"line1": "1 44231U 19027A   25359.78707999 -.00000226  00000+0  00000+0 0  9992", "line2": "2 44231   1.6928  74.7393 0008325 258.9605 188.7082  1.00274194 24343"}}, "geometry": {"type": "Point", "coordinates": [-63.09326044420014, -1.1559254112566753]}}, {"type": "Feature", "properties": {"norad_id": 44299, "name": "COSMOS 2534 (758)", "group": "gnss", "lat": -49.91628061466604, "lon": 53.2468055730245, "alt_km": 19120.263333484498, "timestamp": "2025-12-26T03:50:12.336910+00:00", "meta": {"OBJECT_NAME": "COSMOS 2534 (758)", "OBJECT_ID": "2019-030A", "EPOCH": "2025-12-25T02:45:29.854368", "MEAN_MOTION": 2.13102173, "ECCENTRICITY": 0.00086185, "INCLINATION": 64.3664, "RA_OF_ASC_NODE": 198.4757, "ARG_OF_PERICENTER": 283.7292, "MEAN_ANOMALY": 232.7894, "EPHEMERIS_TYPE": 0, "CLASSIFICATION_TYPE": "U", "NORAD_CAT_ID": 44299, "ELEMENT_SET_NO": 999, "REV_AT_EPOCH": 5121, "BSTAR": 0, "MEAN_MOTION_DOT": 1.03e-06, "MEAN_MOTION_DDOT": 0}, "tle": {"line1": "1 44299U 19030A   25359.11492887  .00000103  00000+0  00000+0 0  9997", "line2": "2 44299  64.3664 198.4757 0008618 283.7292 232.7894  2.13102173 51210"}}, "geometry": {"type": "Point", "coordinates": [53.2468055730245, -49.91628061466604]}}, {"type": "Feature", "properties": {"norad_id": 44337, "name": "BEIDOU-3 IGSO-2 (C39)", "group": "gnss", "lat": 50.043395162842586, "lon": -75.70423201949247, "alt_km": 35785.81655094157, "timestamp": "2025-12-26T03:50:12.336922+00:00", "meta": {"OBJECT_NAME": "BEIDOU-3 IGSO-2 (C39)", "OBJECT_ID": "2019-035A", "EPOCH": "2025-12-25T18:13:52.363776", "MEAN_MOTION": 1.00267205, "ECCENTRICITY": 0.0037878, "INCLINATION": 55.2292, "RA_OF_ASC_NODE": 160.387, "ARG_OF_PERICENTER": 202.6493, "MEAN_ANOMALY": 124.2453, "EPHEMERIS_TYPE": 0, "CLASSIFICATION_TYPE": "U", "NORAD_CAT_ID": 44337, "ELEMENT_SET_NO": 999, "REV_AT_EPOCH": 2392, "BSTAR": 0, "MEAN_MOTION_DOT": -6.4e-07, "MEAN_MOTION_DDOT": 0}, "tle": {"line1": "1 44337U 19035A   25359.75963384 -.00000064  00000+0  00000+0 0  9997", "line2": "2 44337  55.2292 160.3870 0037878 202.6493 124.2453  1.00267205 23922"}}, "geometry": {"type": "Point", "coordinates": [-75.70423201949247, 50.043395162842586]}}, {"type": "Feature", "properties": {"norad_id": 44506, "name": "GPS BIII-2  (PRN 18)", "group": "gnss", "lat": 8.722789147462015, "lon": -15.986138907105163, "alt_km": 20332.73631382886, "timestamp": "2025-12-26T03:50:12.336933+00:00", "meta": {"OBJECT_NAME": "GPS BIII-2  (PRN 18)", "OBJECT_ID": "2019-056A", "EPOCH": "2025-12-25T04:27:47.883168", "MEAN_MOTION": 2.00566525, "ECCENTRICITY": 0.00577677, "INCLINATION": 55.7168, "RA_OF_ASC_NODE": 338.0593, "ARG_OF_PERICENTER": 198.6492, "MEAN_ANOMALY": 188.635, "EPHEMERIS_TYPE": 0, "CLASSIFICATION_TYPE": "U", "NORAD_CAT_ID": 44506, "ELEMENT_SET_NO": 999, "REV_AT_EPOCH": 4658, "BSTAR": 0, "MEAN_MOTION_DOT": -5.9e-07, "MEAN_MOTION_DDOT": 0}, "tle": {"line1": "1 44506U 19056A   25359.18597087 -.00000059  00000+0  00000+0 0  9992", "line2": "2 44506  55.7168 338.0593 0057767 198.6492 188.6350  2.00566525 46580"}}, "geometry": {"type": "Point", "coordinates": [-15.986138907105163, 8.722789147462015]}}]}